COSMOS 2242             
1 22626U 93024A   26089.49631603  .00003138  00000+0  27251-3 0  9997
2 22626  82.5166 246.8090 0015177 232.3282 127.6564 14.96639464783506
SL-16 R/B               
1 22803U 93059B   26089.36892538 -.00000175  00000+0 -63016-4 0  9994
2 22803  70.9916 327.5211 0017327 186.4078 173.6827 14.17234658682465
ARIANE 40 R/B           
1 22830U 93061H   26089.43816671  .00000253  00000+0  10847-3 0  9997
2 22830  98.4878 157.9125 0010088 217.3472 142.7011 14.32872007697073
COSMOS 2278             
1 23087U 94023A   26089.53190684 -.00000147  00000+0 -51975-4 0  9993
2 23087  71.0513 131.4947 0009207 341.4616  18.6170 14.14375115647755
SL-16 R/B               
1 23088U 94023B   26089.56901449  .00000327  00000+0  19368-3 0  9993
2 23088  71.0022  27.0366 0005491 266.5818  93.4677 14.15016743649045
SL-16 R/B               
1 23343U 94074B   26089.57623599  .00000625  00000+0  90329-4 0  9999
2 23343  97.7078 119.5455 0007410 143.3316  17.5918 14.79431930690331
SL-16 R/B               
1 23405U 94077B   26089.61312789 -.00000107  00000+0 -30289-4 0  9998
2 23405  70.9831 308.4719 0001839 195.7720 164.3345 14.15569141619197
ARIANE 40+ R/B          
1 23561U 95021B   26089.44718387  .00000356  00000+0  12737-3 0  9997
2 23561  98.4460 160.6448 0007899  83.0737 287.7044 14.39787352622236
SL-16 R/B               
1 23705U 95058B   26089.55046563 -.00000212  00000+0 -84323-4 0  9993
2 23705  71.0199 136.4611 0010161  87.2696 272.9590 14.15498608570805
SL-16 R/B               
1 24298U 96051B   26089.56247014  .00000135  00000+0  99975-4 0  9991
2 24298  70.7584 131.0611 0013385 114.1810 246.0710 14.12421709524593
ORBVIEW 2 (SEASTAR)     
1 24883U 97037A   26089.46780278  .00000361  00000+0  14184-3 0  9998
2 24883  98.8603 254.3341 0002319  25.9059 334.2241 14.35509582511455
SL-16 R/B               
1 25400U 98043G   26089.49990931  .00000092  00000+0  57703-4 0  9990
2 25400  98.8289  43.0154 0009143 319.2841  40.7654 14.26054702441959
